[{"OBJECT_NAME":"ONEWEB-0376","OBJECT_ID":"2021-090Z","EPOCH":"2026-03-09T17:11:57.871392","MEAN_MOTION":13.19725499,"ECCENTRICITY":0.00017504,"INCLINATION":87.9237,"RA_OF_ASC_NODE":324.7777,"ARG_OF_PERICENTER":89.8249,"MEAN_ANOMALY":270.3084,"EPHEMERIS_TYPE":0,"CLASSIFICATION_TYPE":"U","NORAD_CAT_ID":49302,"ELEMENT_SET_NO":999,"REV_AT_EPOCH":21333,"BSTAR":-0.00038829675,"MEAN_MOTION_DOT":-1.43e-6,"MEAN_MOTION_DDOT":0},{"OBJECT_NAME":"SS-18 R\/B","OBJECT_ID":"1999-021C","EPOCH":"2026-03-09T09:15:45.322272","MEAN_MOTION":13.73024449,"ECCENTRICITY":0.05595907,"INCLINATION":64.5537,"RA_OF_ASC_NODE":57.4722,"ARG_OF_PERICENTER":331.1631,"MEAN_ANOMALY":25.9515,"EPHEMERIS_TYPE":0,"CLASSIFICATION_TYPE":"U","NORAD_CAT_ID":25695,"ELEMENT_SET_NO":999,"REV_AT_EPOCH":34627,"BSTAR":0.00018610859,"MEAN_MOTION_DOT":4.28e-6,"MEAN_MOTION_DDOT":0}]
